#aV2019 12 16  0  0  0.00000000     288 DD+AD WGS84 FIT  NGA
## 2084  86400.00000000   300.00000000 58833 0.0000000000000
+   32     1  2  3  4  5  6  7  8  9 10 11 12 13 14 15 16 17
+         18 19 20 21 22 23 24 25 26 27 28 29 30 31 32  0  0
+          0  0  0  0  0  0  0  0  0  0  0  0  0  0  0  0  0
+          0  0  0  0  0  0  0  0  0  0  0  0  0  0  0  0  0
+          0  0  0  0  0  0  0  0  0  0  0  0  0  0  0  0  0
++         2  2  2  2  2  2  2  2  2  2  2  2  2  2  2  2  2
++         2  2  2  2  2  2  2  2  2  2  2  2  2  2  2  0  0
++         0  0  0  0  0  0  0  0  0  0  0  0  0  0  0  0  0
++         0  0  0  0  0  0  0  0  0  0  0  0  0  0  0  0  0
++         0  0  0  0  0  0  0  0  0  0  0  0  0  0  0  0  0
%c cc cc ccc ccc cccc cccc cccc cccc ccccc ccccc ccccc ccccc
%c cc cc ccc ccc cccc cccc cccc cccc ccccc ccccc ccccc ccccc
%f  0.0000000  0.000000000  0.00000000000  0.000000000000000
%f  0.0000000  0.000000000  0.00000000000  0.000000000000000
%i    0    0    0    0      0      0      0      0         0
%i    0    0    0    0      0      0      0      0         0
/*      NGA, ST. LOUIS,MO.                                  
/*   EPHEMERIS COMPUTED FROM 2 DAYS OF DATA                 
/*   EPOCHA v5 SMOOTHER                                     
/*   G1762 IERS2010 SATAF SATAPC                            
*  2019 12 16  1  0  0.00000000
P  1   9277.622745 -19298.648199 -15703.117137   -230.982485                    
V  1  17143.406330  -9786.090941  22756.826906     -0.123246                    
P  2 -21878.401044  14297.912905  -3729.311122   -367.112512                    
V  2   2384.246928  -5853.239936 -31283.986256     -0.074066                    
P  3  -2461.110147 -16812.135919 -20496.080030    -53.674387                    
V  3  23829.536368  10075.573864 -11070.777934     -0.067822                    
P  4   1211.529535 -26235.406029  -3897.247506    -21.137550                    
V  4   3117.702486   4786.943915 -31221.133531     -0.046829                    
P  5 -18275.143052   6267.560091  18171.194637     -4.749082                    
V  5 -20793.898286 -10661.570438 -16914.736083     -0.005026                    
P  6 -21585.961099   2702.097371 -15208.959676   -154.702147                    
V  6  14864.807098 -12501.017896 -23211.797294     -0.110922                    
P  7  -7948.676837 -13309.507445  21836.164980   -170.847506                    
V  7  22540.076713 -15041.801423  -1449.635697     -0.082121                    
P  8   6798.158850 -21925.304328  13195.013849    -16.888021                    
V  8   3903.646969  16451.722947  25614.456860     -0.013064                    
P  9  -7178.218174 -24738.361684   6396.002561   -109.098156                    
V  9   2104.557914  -8472.359194 -30154.181238     -0.093506                    
P 10  24093.441585  11466.175556    496.512993   -173.686713                    
V 10  -1545.457756   2053.356236  31675.877978     -0.141871                    
P 11   5786.595786 -24740.917363  -8763.954878   -418.232921                    
V 11   8183.216144  -7437.664645  27700.655484      0.110377                    
P 12  -3127.956798  15032.425638 -21912.087679    172.789191                    
V 12 -23978.673323 -12877.451941  -5301.064366     -0.040123                    
P 13 -12774.956555  14875.847262  17755.634080    -26.400564                    
V 13   -777.741796 -22847.711425  18527.338519      0.024353                    
P 14  15073.948826   -456.439054 -21535.576679    -44.598110                    
V 14    403.744994  28130.391385   -486.659136      0.022240                    
P 15  -4677.769446  22921.265111  11903.392734   -265.409856                    
V 15  -6478.725909 -14847.702989  25790.474214      0.026813                    
P 16  19473.765826  -2620.134676  17885.019276   -103.435448                    
V 16  19307.979428  12337.657263 -18577.319520     -0.038711                    
P 17 -13331.847676 -11554.102803 -19450.059630    181.414635                    
V 17    153.909803 -25569.643898  14696.658934      0.066814                    
P 18  15349.700687 -19956.939280  -8810.332223    106.949634                    
V 18   9922.478412  -4411.186201  29033.223509      0.024733                    
P 19 -14754.141640  -3151.423382 -22150.929137   -225.787789                    
V 19    553.040265 -27355.893669   3584.551926      0.051777                    
P 20  19522.603932  14538.599550  10762.711516    527.662355                    
V 20 -14085.315470  -1222.563943  26755.203046      0.000685                    
P 21  11037.420450  11356.735469  22108.991526    -70.314059                    
V 21 -20321.598454  16625.495293   1881.287011      0.057656                    
P 22   6003.630625 -14610.638586 -21133.408269   -777.722761                    
V 22  25723.662448   9648.355197    734.779790     -0.019363                    
P 23  -1309.146114 -26191.215371  -2230.854841   -149.309288                    
V 23   4070.922577   2851.930992 -31432.081065      0.023567                    
P 24 -10085.815890  20521.615084 -13384.050438     -6.273384                    
V 24 -15098.984597   8156.256431  24569.891429     -0.005234                    
P 25  11881.717353  17784.652133 -16134.161598    -17.306291                    
V 25 -18744.484400  -7035.994133 -21596.709548      0.002167                    
P 26  24495.356526   2510.526775  10203.983704    106.518620                    
V 26  10854.687614   7525.376579 -27645.813431      0.081655                    
P 27  12523.324074 -11664.918963  20105.667998   -151.616611                    
V 27   3436.490955  25622.959416  12959.259320     -0.116104                    
P 28 -22957.502901 -13189.258976   -156.076572    750.409819                    
V 28    370.316434  -2488.555680  32261.136534     -0.019290                    
P 29   4585.337233  25431.487665   6057.416210     17.526987                    
V 29  -1800.888565   7757.688110 -31075.388932     -0.098810                    
P 30 -17794.777386  -5128.378544  19138.001378   -106.835843                    
V 30  19541.919147 -14428.649180  14130.658330     -0.086246                    
P 31  22979.914634  -4223.869956 -13081.088285    -10.064660                    
V 31 -12572.234024  10708.019231 -25140.269838     -0.025618                    
P 32  14802.937446  10346.370544 -19457.997106    156.638197                    
V 32   1156.971770  24815.408863  13900.214627      0.113638                    
EOF
